{
  "norad_id": 68021,
  "name": "STARLINK-36858",
  "history": [
    {
      "epoch": "2026-03-24T12:55:13.776960",
      "apogee_km": 344.826297536978,
      "perigee_km": 342.5481368732835,
      "latitude_deg": 83.83214398959754,
      "longitude_deg": -70.218025600072,
      "semi_major_axis_km": 6721.8242172051305,
      "eccentricity": 0.00016946,
      "inclination_deg": 97.2853,
      "raan_deg": 32.8877,
      "arg_perigee_deg": 78.8231,
      "mean_anomaly_deg": 281.3225,
      "mean_motion_rev_day": 15.75331784
    }
  ]
}